NORAD_CAT_ID,OBJECT_NAME,OBJECT_TYPE,EPOCH,MEAN_MOTION,ECCENTRICITY,INCLINATION,RA_OF_ASC_NODE,ARG_OF_PERICENTER,MEAN_ANOMALY,BSTAR,MEAN_MOTION_DOT,MEAN_MOTION_DDOT,TLE_LINE0,TLE_LINE1,TLE_LINE2,SEMIMAJOR_AXIS,PERIOD,APOGEE,PERIGEE,DECAYED
49419.0,STARLINK-3120,PAYLOAD,2024-03-01 23:28:06,15.08842923,0.0001345,53.2169,300.8393,89.6583,270.4563,0.00012571,1.713e-05,0.0,0 STARLINK-3120,1 49419U 21104M   24061.97785027  .00001713  00000-0  12571-3 0  9994,2 49419  53.2169 300.8393 0001345  89.6583 270.4563 15.08842923127259,6917.871,95.437,540.667,538.806,0.0
49419.0,STARLINK-3120,PAYLOAD,2024-03-02 20:08:07,15.08836255,0.0001298,53.2164,296.9732,100.8054,259.3084,1.918e-05,1.7e-07,0.0,0 STARLINK-3120,1 49419U 21104M   24062.83897850  .00000017  00000-0  19180-4 0  9998,2 49419  53.2164 296.9732 0001298 100.8054 259.3084 15.08836255128472,6917.892,95.438,540.655,538.859,0.0
49419.0,STARLINK-3120,PAYLOAD,2024-03-02 21:43:30,15.08835669,0.0001143,53.2164,296.6753,96.5809,263.5314,1.5115e-05,-4.7e-07,0.0,0 STARLINK-3120,1 49419U 21104M   24062.90521880 -.00000047  00000-0  15115-4 0  9991,2 49419  53.2164 296.6753 0001143  96.5809 263.5314 15.08835669127391,6917.894,95.438,540.549,538.968,0.0
49419.0,STARLINK-3120,PAYLOAD,2024-03-03 08:51:12,15.08842374,0.0001278,53.2171,294.593,102.0876,258.0259,1.4014e-05,-6.5e-07,0.0,0 STARLINK-3120,1 49419U 21104M   24063.36889454 -.00000065  00000-0  14014-4 0  9993,2 49419  53.2171 294.5930 0001278 102.0876 258.0259 15.08842374127465,6917.873,95.437,540.622,538.854,0.0
49419.0,STARLINK-3120,PAYLOAD,2024-03-03 21:34:16,15.08854654,0.0001347,53.2164,292.2154,91.879,268.2357,9.3437e-05,1.2e-05,0.0,0 STARLINK-3120,1 49419U 21104M   24063.89880599  .00001200  00000-0  93437-4 0  9999,2 49419  53.2164 292.2154 0001347  91.8790 268.2357 15.08854654127542,6917.836,95.437,540.632,538.769,0.0
49419.0,STARLINK-3120,PAYLOAD,2024-03-04 00:45:02,15.0885831,0.0001381,53.2161,291.6165,114.4028,245.7108,0.0001114,1.486e-05,0.0,0 STARLINK-3120,1 49419U 21104M   24064.03127996  .00001486  00000-0  11140-3 0  9997,2 49419  53.2161 291.6165 0001381 114.4028 245.7108 15.08858310128658,6917.824,95.436,540.645,538.734,0.0
49419.0,STARLINK-3120,PAYLOAD,2024-03-04 19:49:40,15.0885374,0.0001487,53.2176,288.0478,87.4677,272.6485,0.00012323,1.674e-05,0.0,0 STARLINK-3120,1 49419U 21104M   24064.82616003  .00001674  00000-0  12323-3 0  9999,2 49419  53.2176 288.0478 0001487  87.4677 272.6485 15.08853740128779,6917.838,95.437,540.732,538.675,0.0
49419.0,STARLINK-3120,PAYLOAD,2024-03-04 21:25:03,15.08854834,0.0001417,53.2175,287.7512,95.4012,264.7142,0.00012561,1.712e-05,0.0,0 STARLINK-3120,1 49419U 21104M   24064.89239810  .00001712  00000-0  12561-3 0  9990,2 49419  53.2175 287.7512 0001417  95.4012 264.7142 15.08854834127695,6917.835,95.437,540.68,538.72,0.0
49419.0,STARLINK-3120,PAYLOAD,2024-03-05 00:35:49,15.08855053,0.0001432,53.2176,287.1567,95.6743,264.4413,0.00012269,1.666e-05,0.0,0 STARLINK-3120,1 49419U 21104M   24065.02487685  .00001666  00000-0  12269-3 0  9994,2 49419  53.2176 287.1567 0001432  95.6743 264.4413 15.08855053127715,6917.834,95.437,540.69,538.709,0.0
49419.0,STARLINK-3120,PAYLOAD,2024-03-05 19:40:26,15.0885142,0.0001366,53.217,283.5882,93.4403,266.6745,5.635e-05,6.09e-06,0.0,0 STARLINK-3120,1 49419U 21104M   24065.81975578  .00000609  00000-0  56350-4 0  9990,2 49419  53.2170 283.5882 0001366  93.4403 266.6745 15.08851420128924,6917.845,95.437,540.655,538.766,0.0
49419.0,STARLINK-3120,PAYLOAD,2024-03-05 21:15:49,15.08863977,0.0001362,53.2173,283.2915,88.7697,271.3451,0.00015326,2.154e-05,0.0,0 STARLINK-3120,1 49419U 21104M   24065.88598622  .00002154  00000-0  15326-3 0  9992,2 49419  53.2173 283.2915 0001362  88.7697 271.3451 15.08863977128937,6917.807,95.436,540.614,538.73,0.0
49419.0,STARLINK-3120,PAYLOAD,2024-03-06 19:31:15,15.08832628,0.0001289,53.2166,279.1282,96.6155,263.4984,-0.0001069,-1.988e-05,0.0,0 STARLINK-3120,1 49419U 21104M   24066.81337174 -.00001988  00000-0 -10690-3 0  9994,2 49419  53.2166 279.1282 0001289  96.6155 263.4984 15.08832628129073,6917.903,95.438,540.66,538.876,0.0
49419.0,STARLINK-3120,PAYLOAD,2024-03-07 13:00:30,15.0882787,0.0001164,53.2166,275.8597,94.547,265.5655,-5.0705e-05,-1.094e-05,0.0,0 STARLINK-3120,1 49419U 21104M   24067.54201770 -.00001094  00000-0 -50705-4 0  9997,2 49419  53.2166 275.8597 0001164  94.5470 265.5655 15.08827870128096,6917.917,95.438,540.588,538.977,0.0
49419.0,STARLINK-3120,PAYLOAD,2024-03-08 12:51:17,15.08828496,0.0002006,53.2166,271.3994,84.9586,275.1635,0.00015353,2.155e-05,0.0,0 STARLINK-3120,1 49419U 21104M   24068.53561453  .00002155  00000-0  15353-3 0  9990,2 49419  53.2166 271.3994 0002006  84.9586 275.1635 15.08828496129333,6917.916,95.438,541.168,538.393,0.0
49419.0,STARLINK-3120,PAYLOAD,2024-03-08 23:59:00,15.08819255,0.0001603,53.2171,269.3183,88.3705,271.7471,5.5482e-05,5.95e-06,0.0,0 STARLINK-3120,1 49419U 21104M   24068.99930669  .00000595  00000-0  55482-4 0  9993,2 49419  53.2171 269.3183 0001603  88.3705 271.7471 15.08819255129400,6917.944,95.439,540.918,538.7,0.0
49419.0,STARLINK-3120,PAYLOAD,2024-03-09 12:42:04,15.08825278,8.96e-05,53.2163,266.9387,98.0446,262.0648,0.00015854,2.235e-05,0.0,0 STARLINK-3120,1 49419U 21104M   24069.52922252  .00002235  00000-0  15854-3 0  9993,2 49419  53.2163 266.9387 0000896  98.0446 262.0648 15.08825278128391,6917.925,95.438,540.41,539.171,0.0
49419.0,STARLINK-3120,PAYLOAD,2024-03-10 06:11:19,15.08819594,0.0001901,53.2156,263.6674,135.1237,224.9909,0.00041128,6.26e-05,0.0,0 STARLINK-3120,1 49419U 21104M   24070.25786344  .00006260  00000-0  41128-3 0  9990,2 49419  53.2156 263.6674 0001901 135.1237 224.9909 15.08819594128509,6917.943,95.439,541.123,538.493,0.0
49419.0,STARLINK-3120,PAYLOAD,2024-03-10 18:54:29,15.08769002,6.81e-05,53.2168,261.2873,97.8289,262.2781,-0.00054888,-8.995e-05,0.0,0 STARLINK-3120,1 49419U 21104M   24070.78783921 -.00008995  00000-0 -54888-3 0  9992,2 49419  53.2168 261.2873 0000681  97.8289 262.2781 15.08769002129672,6918.097,95.442,540.434,539.491,0.0
49419.0,STARLINK-3120,PAYLOAD,2024-03-10 22:05:14,15.08791489,6e-05,53.2168,260.693,95.0304,265.0757,-0.00034169,-5.714e-05,0.0,0 STARLINK-3120,1 49419U 21104M   24070.92030479 -.00005714  00000-0 -34169-3 0  9997,2 49419  53.2168 260.6930 0000600  95.0304 265.0757 15.08791489128608,6918.029,95.441,540.309,539.479,0.0
49419.0,STARLINK-3120,PAYLOAD,2024-03-11 06:02:08,15.0881638,0.000122,53.2161,259.2059,111.7166,248.3956,-1.831e-05,-5.79e-06,0.0,0 STARLINK-3120,1 49419U 21104M   24071.25148615 -.00000579  00000-0 -18310-4 0  9991,2 49419  53.2161 259.2059 0001220 111.7166 248.3956 15.08816380129747,6917.953,95.439,540.662,538.974,0.0
49419.0,STARLINK-3120,PAYLOAD,2024-03-11 20:20:35,15.08844492,0.0001603,53.2158,256.5298,101.857,258.2602,0.00012609,1.72e-05,0.0,0 STARLINK-3120,1 49419U 21104M   24071.84762895  .00001720  00000-0  12609-3 0  9999,2 49419  53.2158 256.5298 0001603 101.8570 258.2602 15.08844492129835,6917.867,95.437,540.841,538.623,0.0
49419.0,STARLINK-3120,PAYLOAD,2024-03-11 21:55:58,15.08845004,0.0001606,53.2157,256.2323,102.4234,257.6938,0.00012889,1.764e-05,0.0,0 STARLINK-3120,1 49419U 21104M   24071.91386853  .00001764  00000-0  12889-3 0  9991,2 49419  53.2157 256.2323 0001606 102.4234 257.6938 15.08845004128752,6917.865,95.437,540.841,538.619,0.0
49419.0,STARLINK-3120,PAYLOAD,2024-03-13 12:05:12,15.08859715,0.0001867,53.2153,249.0956,107.8097,252.3098,0.00011585,1.557e-05,0.0,0 STARLINK-3120,1 49419U 21104M   24073.50361956  .00001557  00000-0  11585-3 0  9997,2 49419  53.2153 249.0956 0001867 107.8097 252.3098 15.08859715130087,6917.82,95.436,540.977,538.394,0.0
49419.0,STARLINK-3120,PAYLOAD,2024-03-13 18:26:45,15.08850677,0.0001715,53.2153,247.9085,97.8828,262.2359,4.2181e-05,3.83e-06,0.0,0 STARLINK-3120,1 49419U 21104M   24073.76858464  .00000383  00000-0  42181-4 0  9993,2 49419  53.2153 247.9085 0001715  97.8828 262.2359 15.08850677130122,6917.848,95.437,540.899,538.526,0.0
49419.0,STARLINK-3120,PAYLOAD,2024-03-13 21:37:32,15.08837222,0.0001694,53.2187,247.3114,94.6675,265.4511,0.00026344,3.907e-05,0.0,0 STARLINK-3120,1 49419U 21104M   24073.90106539  .00003907  00000-0  26344-3 0  9995,2 49419  53.2187 247.3114 0001694  94.6675 265.4511 15.08837222129053,6917.889,95.438,540.926,538.582,0.0
49419.0,STARLINK-3120,PAYLOAD,2024-03-14 03:59:04,15.08846598,0.0001749,53.2159,246.1215,98.0058,262.1132,-2.5904e-05,-7e-06,0.0,0 STARLINK-3120,1 49419U 21104M   24074.16602643 -.00000700  00000-0 -25904-4 0  9993,2 49419  53.2159 246.1215 0001749  98.0058 262.1132 15.08846598129098,6917.86,95.437,540.935,538.515,0.0
49419.0,STARLINK-3120,PAYLOAD,2024-03-14 18:17:32,15.08838756,0.0001308,53.2156,243.4474,77.4345,282.6793,3.464e-05,2.63e-06,0.0,0 STARLINK-3120,1 49419U 21104M   24074.76218375  .00000263  00000-0  34640-4 0  9993,2 49419  53.2156 243.4474 0001308  77.4345 282.6793 15.08838756130272,6917.884,95.438,540.654,538.844,0.0
49419.0,STARLINK-3120,PAYLOAD,2024-03-15 21:19:05,15.08841567,0.0001542,53.2148,238.3919,79.922,280.1946,5.4528e-05,5.8e-06,0.0,0 STARLINK-3120,1 49419U 21104M   24075.88826244  .00000580  00000-0  54528-4 0  9996,2 49419  53.2148 238.3919 0001542  79.9220 280.1946 15.08841567129353,6917.876,95.437,540.807,538.674,0.0
49419.0,STARLINK-3120,PAYLOAD,2024-03-16 14:48:20,15.08841333,0.0002011,53.215,235.1197,76.3538,283.7678,-6.097e-06,-3.85e-06,0.0,0 STARLINK-3120,1 49419U 21104M   24076.61690591 -.00000385  00000-0 -60970-5 0  9996,2 49419  53.2150 235.1197 0002011  76.3538 283.7678 15.08841333129468,6917.876,95.437,541.132,538.35,0.0
49419.0,STARLINK-3120,PAYLOAD,2024-03-16 19:34:30,15.08840468,0.0001818,53.2169,234.2268,85.9528,274.1672,6.3631e-05,7.25e-06,0.0,0 STARLINK-3120,1 49419U 21104M   24076.81562506  .00000725  00000-0  63631-4 0  9994,2 49419  53.2169 234.2268 0001818  85.9528 274.1672 15.08840468129495,6917.879,95.438,541.002,538.486,0.0
